start=new Date('2022-12-20T00:00:00.000Z').valueOf();
sats=[{"OBJECT_TYPE":"PAYLOAD","BSTAR":"0.00022859000000","ARG_OF_PERICENTER":"97.0079","EPOCH":"2022-12-19T17:43:44.565600","APOAPSIS":"548.072","NORAD_CAT_ID":"47560","TLE_LINE1":"1 47560U 21009N   22353.73871025  .00003126  00000-0  22859-3 0  9993","SITE":"AFETR","INCLINATION":"53.0548","ELEMENT_SET_NO":"999","RCS_SIZE":"LARGE","OBJECT_NAME":"STARLINK-1959","MEAN_ELEMENT_THEORY":"SGP4","PERIOD":"95.592","DECAY_DATE":null,"ECCENTRICITY":"0.00012700","MEAN_MOTION":"15.06406756","GP_ID":"220966357","FILE":"3711774","PERIAPSIS":"546.313","MEAN_MOTION_DOT":"0.00003126","CLASSIFICATION_TYPE":"U","TLE_LINE2":"2 47560  53.0548 240.6500 0001270  97.0079 263.1055 15.06406756103835","COUNTRY_CODE":"US","MEAN_ANOMALY":"263.1055","EPHEMERIS_TYPE":"0","SEMIMAJOR_AXIS":"6925.328","OBJECT_ID":"2021-009N","TIME_SYSTEM":"UTC","RA_OF_ASC_NODE":"240.6500","MEAN_MOTION_DDOT":"0.0000000000000","REF_FRAME":"TEME","LAUNCH_DATE":"2021-02-04","CENTER_NAME":"EARTH","REV_AT_EPOCH":"10383"},{"ELEMENT_SET_NO":"999","RCS_SIZE":"LARGE","MEAN_ELEMENT_THEORY":"SGP4","OBJECT_NAME":"STARLINK-1960","PERIOD":"95.592","INCLINATION":"53.0547","TLE_LINE1":"1 47561U 21009P   22353.85943348  .00002583  00000-0  19219-3 0  9997","SITE":"AFETR","ARG_OF_PERICENTER":"86.4883","EPOCH":"2022-12-19T20:37:35.052672","NORAD_CAT_ID":"47561","APOAPSIS":"548.093","OBJECT_TYPE":"PAYLOAD","BSTAR":"0.00019219000000","REV_AT_EPOCH":"10418","CENTER_NAME":"EARTH","MEAN_MOTION_DDOT":"0.0000000000000","REF_FRAME":"TEME","RA_OF_ASC_NODE":"260.1286","LAUNCH_DATE":"2021-02-04","TIME_SYSTEM":"UTC","EPHEMERIS_TYPE":"0","SEMIMAJOR_AXIS":"6925.343","OBJECT_ID":"2021-009P","TLE_LINE2":"2 47561  53.0547 260.1286 0001277  86.4883 273.6252 15.06401713104187","COUNTRY_CODE":"US","MEAN_ANOMALY":"273.6252","FILE":"3711821","GP_ID":"220972841","MEAN_MOTION":"15.06401713","PERIAPSIS":"546.324","MEAN_MOTION_DOT":"0.00002583","CLASSIFICATION_TYPE":"U","DECAY_DATE":null,"ECCENTRICITY":"0.00012770"},{"OBJECT_TYPE":"PAYLOAD","BSTAR":"0.00019442000000","NORAD_CAT_ID":"47562","APOAPSIS":"547.965","EPOCH":"2022-12-19T22:34:21.239040","ARG_OF_PERICENTER":"83.9992","PERIOD":"95.592","OBJECT_NAME":"STARLINK-1961","MEAN_ELEMENT_THEORY":"SGP4","RCS_SIZE":"LARGE","ELEMENT_SET_NO":"999","SITE":"AFETR","TLE_LINE1":"1 47562U 21009Q   22353.94052360  .00002616  00000-0  19442-3 0  9998","INCLINATION":"53.0544","COUNTRY_CODE":"US","MEAN_ANOMALY":"276.1124","TLE_LINE2":"2 47562  53.0544 259.7693 0001115  83.9992 276.1124 15.06406688104187","OBJECT_ID":"2021-009Q","SEMIMAJOR_AXIS":"6925.328","EPHEMERIS_TYPE":"0","ECCENTRICITY":"0.00011150","DECAY_DATE":null,"CLASSIFICATION_TYPE":"U","MEAN_MOTION_DOT":"0.00002616","GP_ID":"220972846","PERIAPSIS":"546.421","FILE":"3711821","MEAN_MOTION":"15.06406688","LAUNCH_DATE":"2021-02-04","MEAN_MOTION_DDOT":"0.0000000000000","REF_FRAME":"TEME","RA_OF_ASC_NODE":"259.7693","CENTER_NAME":"EARTH","REV_AT_EPOCH":"10418","TIME_SYSTEM":"UTC"},{"MEAN_MOTION_DDOT":"0.0000000000000","REF_FRAME":"TEME","RA_OF_ASC_NODE":"259.9727","LAUNCH_DATE":"2021-02-04","REV_AT_EPOCH":"10417","CENTER_NAME":"EARTH","TIME_SYSTEM":"UTC","MEAN_ANOMALY":"289.2086","COUNTRY_CODE":"US","TLE_LINE2":"2 47563  53.0540 259.9727 0001629  70.9079 289.2086 15.06401581104174","EPHEMERIS_TYPE":"0","OBJECT_ID":"2021-009R","SEMIMAJOR_AXIS":"6925.344","DECAY_DATE":null,"ECCENTRICITY":"0.00016290","MEAN_MOTION_DOT":"0.00003084","GP_ID":"220973176","PERIAPSIS":"546.081","FILE":"3711821","MEAN_MOTION":"15.06401581","CLASSIFICATION_TYPE":"U","RCS_SIZE":"LARGE","ELEMENT_SET_NO":"999","PERIOD":"95.592","MEAN_ELEMENT_THEORY":"SGP4","OBJECT_NAME":"STARLINK-1962","TLE_LINE1":"1 47563U 21009R   22353.89630142  .00003084  00000-0  22583-3 0  9993","SITE":"AFETR","INCLINATION":"53.0540","BSTAR":"0.00022583000000","OBJECT_TYPE":"PAYLOAD","EPOCH":"2022-12-19T21:30:40.442688","ARG_OF_PERICENTER":"70.9079","NORAD_CAT_ID":"47563","APOAPSIS":"548.337"},{"RCS_SIZE":"LARGE","ELEMENT_SET_NO":"999","PERIOD":"95.591","OBJECT_NAME":"STARLINK-1963","MEAN_ELEMENT_THEORY":"SGP4","TLE_LINE1":"1 47564U 21009S   22353.89721367  .00003554  00000-0  25725-3 0  9997","SITE":"AFETR","INCLINATION":"53.0554","BSTAR":"0.00025725000000","OBJECT_TYPE":"PAYLOAD","EPOCH":"2022-12-19T21:31:59.261088","ARG_OF_PERICENTER":"93.0223","NORAD_CAT_ID":"47564","APOAPSIS":"548.194","REF_FRAME":"TEME","MEAN_MOTION_DDOT":"0.0000000000000","RA_OF_ASC_NODE":"249.9697","LAUNCH_DATE":"2021-02-04","REV_AT_EPOCH":"10431","CENTER_NAME":"EARTH","TIME_SYSTEM":"UTC","COUNTRY_CODE":"US","MEAN_ANOMALY":"267.0935","TLE_LINE2":"2 47564  53.0554 249.9697 0001476  93.0223 267.0935 15.06413543104316","EPHEMERIS_TYPE":"0","OBJECT_ID":"2021-009S","SEMIMAJOR_AXIS":"6925.307","DECAY_DATE":null,"ECCENTRICITY":"0.00014760","MEAN_MOTION_DOT":"0.00003554","GP_ID":"220973182","FILE":"3711821","PERIAPSIS":"546.150","MEAN_MOTION":"15.06413543","CLASSIFICATION_TYPE":"U"},{"SEMIMAJOR_AXIS":"6925.352","OBJECT_ID":"2021-009T","EPHEMERIS_TYPE":"0","TLE_LINE2":"2 47565  53.0552 249.9780 0001280  82.4862 277.6272 15.06399007104311","COUNTRY_CODE":"US","MEAN_ANOMALY":"277.6272","CLASSIFICATION_TYPE":"U","PERIAPSIS":"546.330","GP_ID":"220972842","FILE":"3711821","MEAN_MOTION":"15.06399007","MEAN_MOTION_DOT":"0.00003199","ECCENTRICITY":"0.00012800","DECAY_DATE":null,"CENTER_NAME":"EARTH","REV_AT_EPOCH":"10431","LAUNCH_DATE":"2021-02-04","RA_OF_ASC_NODE":"249.9780","MEAN_MOTION_DDOT":"0.0000000000000","REF_FRAME":"TEME","TIME_SYSTEM":"UTC","APOAPSIS":"548.103","NORAD_CAT_ID":"47565","ARG_OF_PERICENTER":"82.4862","EPOCH":"2022-12-19T21:26:42.405504","OBJECT_TYPE":"PAYLOAD","BSTAR":"0.00023359000000","MEAN_ELEMENT_THEORY":"SGP4","OBJECT_NAME":"STARLINK-1964","PERIOD":"95.592","ELEMENT_SET_NO":"999","RCS_SIZE":"LARGE","INCLINATION":"53.0552","SITE":"AFETR","TLE_LINE1":"1 47565U 21009T   22353.89354636  .00003199  00000-0  23359-3 0  9995"},{"TIME_SYSTEM":"UTC","REV_AT_EPOCH":"10447","CENTER_NAME":"EARTH","MEAN_MOTION_DDOT":"0.0000000000000","RA_OF_ASC_NODE":"239.7171","REF_FRAME":"TEME","LAUNCH_DATE":"2021-02-04","GP_ID":"220972860","FILE":"3711822","PERIAPSIS":"546.014","MEAN_MOTION":"15.06405528","MEAN_MOTION_DOT":"0.00002102","CLASSIFICATION_TYPE":"U","DECAY_DATE":null,"ECCENTRICITY":"0.00017080","EPHEMERIS_TYPE":"0","SEMIMAJOR_AXIS":"6925.332","OBJECT_ID":"2021-009U","TLE_LINE2":"2 47566  53.0535 239.7171 0001708  82.3846 277.7337 15.06405528104476","COUNTRY_CODE":"US","MEAN_ANOMALY":"277.7337","INCLINATION":"53.0535","TLE_LINE1":"1 47566U 21009U   22353.95342824  .00002102  00000-0  15998-3 0  9992","SITE":"AFETR","ELEMENT_SET_NO":"999","RCS_SIZE":"LARGE","OBJECT_NAME":"STARLINK-1965","MEAN_ELEMENT_THEORY":"SGP4","PERIOD":"95.592","ARG_OF_PERICENTER":"82.3846","EPOCH":"2022-12-19T22:52:56.199936","APOAPSIS":"548.379","NORAD_CAT_ID":"47566","OBJECT_TYPE":"PAYLOAD","BSTAR":"0.00015998000000"},{"RCS_SIZE":"LARGE","ELEMENT_SET_NO":"999","PERIOD":"95.590","OBJECT_NAME":"STARLINK-1966","MEAN_ELEMENT_THEORY":"SGP4","TLE_LINE1":"1 47567U 21009V   22353.92394375  .00021113  00000-0  14310-2 0  9997","SITE":"AFETR","INCLINATION":"53.0542","BSTAR":"0.00143100000000","OBJECT_TYPE":"PAYLOAD","EPOCH":"2022-12-19T22:10:28.740000","ARG_OF_PERICENTER":"89.0710","NORAD_CAT_ID":"47567","APOAPSIS":"548.029","REF_FRAME":"TEME","MEAN_MOTION_DDOT":"0.0000000000000","RA_OF_ASC_NODE":"279.8453","LAUNCH_DATE":"2021-02-04","REV_AT_EPOCH":"10389","CENTER_NAME":"EARTH","TIME_SYSTEM":"UTC","MEAN_ANOMALY":"271.0428","COUNTRY_CODE":"US","TLE_LINE2":"2 47567  53.0542 279.8453 0001299  89.0710 271.0428 15.06427431103892","EPHEMERIS_TYPE":"0","OBJECT_ID":"2021-009V","SEMIMAJOR_AXIS":"6925.264","DECAY_DATE":null,"ECCENTRICITY":"0.00012990","MEAN_MOTION_DOT":"0.00021113","FILE":"3711822","GP_ID":"220973198","PERIAPSIS":"546.230","MEAN_MOTION":"15.06427431","CLASSIFICATION_TYPE":"U"},{"NORAD_CAT_ID":"47568","APOAPSIS":"548.402","EPOCH":"2022-12-19T19:36:33.288480","ARG_OF_PERICENTER":"60.0498","BSTAR":"0.00012628000000","OBJECT_TYPE":"PAYLOAD","INCLINATION":"53.0549","TLE_LINE1":"1 47568U 21009W   22353.81705195  .00001600  00000-0  12628-3 0  9992","SITE":"AFETR","PERIOD":"95.592","MEAN_ELEMENT_THEORY":"SGP4","OBJECT_NAME":"STARLINK-1967","RCS_SIZE":"LARGE","ELEMENT_SET_NO":"999","CLASSIFICATION_TYPE":"U","MEAN_MOTION_DOT":"0.00001600","GP_ID":"220972854","FILE":"3711822","MEAN_MOTION":"15.06399722","PERIAPSIS":"546.027","ECCENTRICITY":"0.00017150","DECAY_DATE":null,"OBJECT_ID":"2021-009W","SEMIMAJOR_AXIS":"6925.349","EPHEMERIS_TYPE":"0","MEAN_ANOMALY":"300.0661","COUNTRY_CODE":"US","TLE_LINE2":"2 47568  53.0549 280.3291 0001715  60.0498 300.0661 15.06399722103884","TIME_SYSTEM":"UTC","CENTER_NAME":"EARTH","REV_AT_EPOCH":"10388","LAUNCH_DATE":"2021-02-04","RA_OF_ASC_NODE":"280.3291","MEAN_MOTION_DDOT":"0.0000000000000","REF_FRAME":"TEME"},{"ARG_OF_PERICENTER":"92.4093","EPOCH":"2022-12-19T21:01:28.687872","APOAPSIS":"548.285","NORAD_CAT_ID":"47570","OBJECT_TYPE":"PAYLOAD","BSTAR":"0.00090937000000","ELEMENT_SET_NO":"999","RCS_SIZE":"LARGE","OBJECT_NAME":"STARLINK-1969","MEAN_ELEMENT_THEORY":"SGP4","PERIOD":"95.591","INCLINATION":"53.0537","TLE_LINE1":"1 47570U 21009Y   22353.87602648  .00013293  00000-0  90937-3 0  9990","SITE":"AFETR","EPHEMERIS_TYPE":"0","SEMIMAJOR_AXIS":"6925.317","OBJECT_ID":"2021-009Y","TLE_LINE2":"2 47570  53.0537 240.0531 0001592  92.4093 267.7078 15.06410278104463","MEAN_ANOMALY":"267.7078","COUNTRY_CODE":"US","FILE":"3711823","GP_ID":"220973205","PERIAPSIS":"546.080","MEAN_MOTION":"15.06410278","MEAN_MOTION_DOT":"0.00013293","CLASSIFICATION_TYPE":"U","DECAY_DATE":null,"ECCENTRICITY":"0.00015920","REV_AT_EPOCH":"10446","CENTER_NAME":"EARTH","RA_OF_ASC_NODE":"240.0531","MEAN_MOTION_DDOT":"0.0000000000000","REF_FRAME":"TEME","LAUNCH_DATE":"2021-02-04","TIME_SYSTEM":"UTC"}];
